{
    "links": {
        "self": "http://www.neowsapp.com/rest/v1/neo/3455315?api_key=iIulBulltgU6a56xZRHN4H3l9WmuAYTsLGpBGhQ2"
    },
    "id": "3455315",
    "neo_reference_id": "3455315",
    "name": "(2009 FP29)",
    "designation": "2009 FP29",
    "nasa_jpl_url": "http://ssd.jpl.nasa.gov/sbdb.cgi?sstr=3455315",
    "absolute_magnitude_h": 24.3,
    "estimated_diameter": {
        "kilometers": {
            "estimated_diameter_min": 0.0366906138,
            "estimated_diameter_max": 0.0820427065
        },
        "meters": {
            "estimated_diameter_min": 36.6906137531,
            "estimated_diameter_max": 82.0427064882
        },
        "miles": {
            "estimated_diameter_min": 0.0227984834,
            "estimated_diameter_max": 0.0509789586
        },
        "feet": {
            "estimated_diameter_min": 120.3760332259,
            "estimated_diameter_max": 269.1689931548
        }
    },
    "is_potentially_hazardous_asteroid": false,
    "close_approach_data": [
        {
            "close_approach_date": "2009-03-18",
            "close_approach_date_full": "2009-Mar-18 03:01",
            "epoch_date_close_approach": 1237345260000,
            "relative_velocity": {
                "kilometers_per_second": "3.7865280214",
                "kilometers_per_hour": "13631.5008771867",
                "miles_per_hour": "8470.0845311608"
            },
            "miss_distance": {
                "astronomical": "0.1144188554",
                "lunar": "44.5089347506",
                "kilometers": "17116817.055677998",
                "miles": "10635896.9253044524"
            },
            "orbiting_body": "Earth"
        }
    ],
    "orbital_data": {
        "orbit_id": "11",
        "orbit_determination_date": "2017-04-06 09:00:53",
        "first_observation_date": "2009-03-26",
        "last_observation_date": "2009-04-29",
        "data_arc_in_days": 34,
        "observations_used": 28,
        "orbit_uncertainty": "7",
        "minimum_orbit_intersection": ".0955287",
        "jupiter_tisserand_invariant": "4.239",
        "epoch_osculation": "2459000.5",
        "eccentricity": ".3341749239082215",
        "semi_major_axis": "1.634740948076665",
        "inclination": "1.769073931694611",
        "ascending_node_longitude": "195.3931345956018",
        "orbital_period": "763.4345996817304",
        "perihelion_distance": "1.088451516143492",
        "perihelion_argument": "333.8860138344646",
        "aphelion_distance": "2.181030380009838",
        "perihelion_time": "2458721.322865943398",
        "mean_anomaly": "131.6468605199136",
        "mean_motion": ".4715531627071671",
        "equinox": "J2000",
        "orbit_class": {
            "orbit_class_type": "AMO",
            "orbit_class_description": "Near-Earth asteroid orbits similar to that of 1221 Amor",
            "orbit_class_range": "1.017 AU < q (perihelion) < 1.3 AU"
        }
    },
    "is_sentry_object": false
}